NORAD_CAT_ID,OBJECT_NAME,OBJECT_TYPE,EPOCH,MEAN_MOTION,ECCENTRICITY,INCLINATION,RA_OF_ASC_NODE,ARG_OF_PERICENTER,MEAN_ANOMALY,BSTAR,MEAN_MOTION_DOT,MEAN_MOTION_DDOT,TLE_LINE0,TLE_LINE1,TLE_LINE2,SEMIMAJOR_AXIS,PERIOD,APOGEE,PERIGEE,DECAYED
52280.0,STARLINK-3764,PAYLOAD,2022-12-04 12:39:57,15.08840344,0.0002165,53.2196,56.4703,37.7259,322.3884,5.3129e-05,5.57e-06,0.0,0 STARLINK-3764,1 52280U 22041V   22338.52774433  .00000557  00000-0  53129-4 0  9990,2 52280  53.2196  56.4703 0002165  37.7259 322.3884 15.08840344 34540,6917.879,95.438,541.242,538.247,0.0
52280.0,STARLINK-3764,PAYLOAD,2022-12-05 06:09:11,15.08840293,0.0002192,53.2199,53.1993,42.9625,317.1538,9.6393e-05,1.246e-05,0.0,0 STARLINK-3764,1 52280U 22041V   22339.25638515  .00001246  00000-0  96393-4 0  9997,2 52280  53.2199  53.1993 0002192  42.9625 317.1538 15.08840293 34656,6917.879,95.438,541.261,538.2280000000002,0.0
52280.0,STARLINK-3764,PAYLOAD,2022-12-05 22:03:02,15.08844223,0.0002307,53.2196,50.2254,39.9553,320.1608,7.7499e-05,9.45e-06,0.0,0 STARLINK-3764,1 52280U 22041V   22339.91878286  .00000945  00000-0  77499-4 0  9992,2 52280  53.2196  50.2254 0002307  39.9553 320.1608 15.08844223 35970,6917.8669999999975,95.437,541.328,538.137,0.0
52280.0,STARLINK-3764,PAYLOAD,2022-12-06 09:10:44,15.08841,0.0001773,53.2195,48.1439,27.8989,332.2098,5.6155e-05,6.06e-06,0.0,0 STARLINK-3764,1 52280U 22041V   22340.38246294  .00000606  00000-0  56155-4 0  9993,2 52280  53.2195  48.1439 0001773  27.8989 332.2098 15.08841000 34825,6917.877,95.437,540.969,538.516,0.0
52280.0,STARLINK-3764,PAYLOAD,2022-12-06 13:56:54,15.08842286,0.0001754999999999,53.2191,47.2516,22.6196,337.4874,1.5313e-05,-4.4e-07,0.0,0 STARLINK-3764,1 52280U 22041V   22340.58118267 -.00000044  00000-0  15313-4 0  9991,2 52280  53.2191  47.2516 0001755  22.6196 337.4874 15.08842286 34859,6917.873000000001,95.437,540.952,538.524,0.0
52280.0,STARLINK-3764,PAYLOAD,2022-12-07 10:36:53,15.08866491,0.0001686,53.2206,43.38800000000001,13.4438,346.6599,0.00044218,6.761e-05,0.0,0 STARLINK-3764,1 52280U 22041V   22341.44228193  .00006761  00000-0  44218-3 0  9993,2 52280  53.2206  43.3880 0001686  13.4438 346.6599 15.08866491 36208,6917.799,95.436,540.831,538.498,0.0
52280.0,STARLINK-3764,PAYLOAD,2022-12-08 04:06:03,15.08925589,0.0002472,53.2203,40.1177,350.3675,9.727,0.00073581,0.00011469,0.0,0 STARLINK-3764,1 52280U 22041V   22342.17087607  .00011469  00000-0  73581-3 0  9993,2 52280  53.2203  40.1177 0002472 350.3675   9.7270 15.08925589 36318,6917.619000000002,95.432,541.194,537.774,0.0
52280.0,STARLINK-3764,PAYLOAD,2022-12-08 12:02:59,15.08930341,0.0002401,53.2204,38.632,12.218,347.88699999999994,0.00034028,5.145e-05,0.0,0 STARLINK-3764,1 52280U 22041V   22342.50208020  .00005145  00000-0  34028-3 0  9991,2 52280  53.2204  38.6320 0002401  12.2180 347.8870 15.08930341 35142,6917.604,95.432,541.13,537.808,0.0
52280.0,STARLINK-3764,PAYLOAD,2022-12-08 16:49:16,15.08821151,0.0001149,53.2198,37.7406,74.5639,285.548,-0.00038522,-6.409999999999999e-05,0.0,0 STARLINK-3764,1 52280U 22041V   22342.70088193 -.00006410  00000-0 -38522-3 0  9991,2 52280  53.2198  37.7406 0001149  74.5639 285.5480 15.08821151 36398,6917.938,95.439,540.5980000000002,539.008,0.0
52280.0,STARLINK-3764,PAYLOAD,2022-12-09 13:29:10,15.08927607,0.0004201,53.2185,33.8744,43.3559,316.7763,0.00058346,9.032e-05,0.0,0 STARLINK-3764,1 52280U 22041V   22343.56192274  .00009032  00000-0  58346-3 0  9999,2 52280  53.2185  33.8744 0004201  43.3559 316.7763 15.08927607 35307,6917.613,95.432,542.384,536.572,0.0
52280.0,STARLINK-3764,PAYLOAD,2022-12-10 11:44:39,15.08841012,0.0002271,53.2181,29.7089,43.1953,316.9217,-8.2499e-05,-1.601e-05,0.0,0 STARLINK-3764,1 52280U 22041V   22344.48935181 -.00001601  00000-0 -82499-4 0  9996,2 52280  53.2181  29.7089 0002271  43.1953 316.9217 15.08841012 36661,6917.877,95.437,541.313,538.1709999999998,0.0
52280.0,STARLINK-3764,PAYLOAD,2022-12-11 11:35:26,15.08832216,0.000236,53.2171,25.2459,41.3863,318.7308,0.00022247,3.253e-05,0.0,0 STARLINK-3764,1 52280U 22041V   22345.48295059  .00003253  00000-0  22247-3 0  9997,2 52280  53.2171  25.2459 0002360  41.3863 318.7308 15.08832216 35599,6917.904,95.438,541.4019999999998,538.137,0.0
52280.0,STARLINK-3764,PAYLOAD,2022-12-12 03:29:18,15.08834393,0.0002337,53.2178,22.2728,45.0785,315.0397,6.8512e-05,8.02e-06,0.0,0 STARLINK-3764,1 52280U 22041V   22346.14535843  .00000802  00000-0  68512-4 0  9992,2 52280  53.2178  22.2728 0002337  45.0785 315.0397 15.08834393 36913,6917.898,95.438,541.379,538.146,0.0
52280.0,STARLINK-3764,PAYLOAD,2022-12-12 13:01:37,15.08835207,0.0002508,53.2171,20.4888,37.3154,322.8012,4.9473e-05,4.99e-06,0.0,0 STARLINK-3764,1 52280U 22041V   22346.54279924  .00000499  00000-0  49473-4 0  9998,2 52280  53.2171  20.4888 0002508  37.3154 322.8012 15.08835207 35753,6917.895,95.438,541.495,538.025,0.0
52280.0,STARLINK-3764,PAYLOAD,2022-12-13 08:06:15,15.08843291,0.0002514,53.2177,16.9205,38.0995,322.0175,5.797e-05,6.34e-06,0.0,0 STARLINK-3764,1 52280U 22041V   22347.33767371  .00000634  00000-0  57970-4 0  9996,2 52280  53.2177  16.9205 0002514  38.0995 322.0175 15.08843291 37093,6917.87,95.437,541.474,537.996,0.0
52280.0,STARLINK-3764,PAYLOAD,2022-12-13 11:17:01,15.08848515,0.0002362,53.2168,16.3256,37.4549,322.6608,-0.00012336,-2.252e-05,0.0,0 STARLINK-3764,1 52280U 22041V   22347.47015391 -.00002252  00000-0 -12336-3 0  9995,2 52280  53.2168  16.3256 0002362  37.4549 322.6608 15.08848515 35899,6917.854,95.437,541.3530000000002,538.085,0.0
52280.0,STARLINK-3764,PAYLOAD,2022-12-13 19:13:57,15.08836565,0.0002449,53.2168,14.8389,34.8242,325.291,9.9463e-06,-1.3e-06,0.0,0 STARLINK-3764,1 52280U 22041V   22347.80135899 -.00000130  00000-0  99463-5 0  9998,2 52280  53.2168  14.8389 0002449  34.8242 325.2910 15.08836565 35949,6917.891,95.438,541.45,538.062,0.0
52280.0,STARLINK-3764,PAYLOAD,2022-12-14 11:07:48,15.08835896,0.0002363,53.217,11.8652,34.7458,325.3688,6.8115e-05,7.96e-06,0.0,0 STARLINK-3764,1 52280U 22041V   22348.46375920  .00000796  00000-0  68115-4 0  9998,2 52280  53.2170  11.8652 0002363  34.7458 325.3688 15.08835896 36046,6917.893,95.438,541.393,538.123,0.0
52280.0,STARLINK-3764,PAYLOAD,2022-12-14 19:04:44,15.08844183,0.0002472,53.2179,10.3792,34.5053,325.61,8.3321e-05,1.038e-05,0.0,0 STARLINK-3764,1 52280U 22041V   22348.79495419  .00001038  00000-0  83321-4 0  9996,2 52280  53.2179  10.3792 0002472  34.5053 325.6100 15.08844183 37316,6917.868,95.437,541.443,538.023,0.0
52280.0,STARLINK-3764,PAYLOAD,2022-12-15 10:58:35,15.08845455,0.0002398,53.2174,7.405,36.0977,324.0177,8.3729e-05,1.045e-05,0.0,0 STARLINK-3764,1 52280U 22041V   22349.45735247  .00001045  00000-0  83729-4 0  9996,2 52280  53.2174   7.4050 0002398  36.0977 324.0177 15.08845455 36199,6917.864000000001,95.437,541.388,538.07,0.0
52280.0,STARLINK-3764,PAYLOAD,2022-12-15 18:55:31,15.08841388,0.0002702,53.2172,5.9183,33.5354,326.5808,9.9254e-05,1.292e-05,0.0,0 STARLINK-3764,1 52280U 22041V   22349.78855457  .00001292  00000-0  99254-4 0  9992,2 52280  53.2172   5.9183 0002702  33.5354 326.5808 15.08841388 36242,6917.876,95.437,541.61,537.872,0.0
52280.0,STARLINK-3764,PAYLOAD,2022-12-16 04:27:50,15.08838151,0.0002366,53.2171,4.1333,34.7375,325.3772,1.6019e-05,-3.3e-07,0.0,0 STARLINK-3764,1 52280U 22041V   22350.18599808 -.00000033  00000-0  16019-4 0  9994,2 52280  53.2171   4.1333 0002366  34.7375 325.3772 15.08838151 37524,6917.886,95.438,541.388,538.114,0.0
52280.0,STARLINK-3764,PAYLOAD,2022-12-16 12:24:45,15.0883726,0.0002373,53.2169,2.6466,33.2373,326.8768,1.7182e-05,-1.5e-07,0.0,0 STARLINK-3764,1 52280U 22041V   22350.51719824 -.00000015  00000-0  17182-4 0  9995,2 52280  53.2169   2.6466 0002373  33.2373 326.8768 15.08837260 36352,6917.889,95.438,541.395,538.112,0.0
52280.0,STARLINK-3764,PAYLOAD,2022-12-17 07:29:24,15.08828389,0.0002408,53.2174,359.0785,30.0699,330.0431,-6.4928e-05,-1.321e-05,0.0,0 STARLINK-3764,1 52280U 22041V   22351.31208737 -.00001321  00000-0 -64928-4 0  9992,2 52280  53.2174 359.0785 0002408  30.0699 330.0431 15.08828389 36475,6917.916,95.438,541.447,538.115,0.0
52280.0,STARLINK-3764,PAYLOAD,2022-12-17 12:15:33,15.088297,0.000237,53.2178,358.1859,26.76,333.3514,-5.284100000000001e-05,-1.129e-05,0.0,0 STARLINK-3764,1 52280U 22041V   22351.51080722 -.00001129  00000-0 -52841-4 0  9993,2 52280  53.2178 358.1859 0002370  26.7600 333.3514 15.08829700 36503,6917.9119999999975,95.438,541.4159999999998,538.137,0.0
52280.0,STARLINK-3764,PAYLOAD,2022-12-18 00:58:38,15.08830784,0.0002402,53.2179,355.8072,27.5948,332.5172,7.7499e-05,9.45e-06,0.0,0 STARLINK-3764,1 52280U 22041V   22352.04072452  .00000945  00000-0  77499-4 0  9992,2 52280  53.2179 355.8072 0002402  27.5948 332.5172 15.08830784 37804,6917.909000000002,95.438,541.435,538.112,0.0
52280.0,STARLINK-3764,PAYLOAD,2022-12-18 07:20:11,15.08828844,0.0002418,53.218,354.6181,28.5337,331.5787,9.4816e-06,-1.38e-06,0.0,0 STARLINK-3764,1 52280U 22041V   22352.30568988 -.00000138  00000-0  94816-5 0  9993,2 52280  53.2180 354.6181 0002418  28.5337 331.5787 15.08828844 36628,6917.9140000000025,95.438,541.452,538.107,0.0
52280.0,STARLINK-3764,PAYLOAD,2022-12-18 16:52:30,15.08831837,0.0002426,53.218,352.833,29.9027,330.2103,2.2503e-05,7e-07,0.0,0 STARLINK-3764,1 52280U 22041V   22352.70312976  .00000070  00000-0  22503-4 0  9998,2 52280  53.2180 352.8330 0002426  29.9027 330.2103 15.08831837 36684,6917.905,95.438,541.4490000000002,538.092,0.0
52280.0,STARLINK-3764,PAYLOAD,2022-12-19 07:10:57,15.088622699999998,0.0002378,53.2166,350.1573,32.0489,328.0647,-0.000153,-2.724e-05,0.0,0 STARLINK-3764,1 52280U 22041V   22353.29927770 -.00002724  00000-0 -15300-3 0  9993,2 52280  53.2166 350.1573 0002378  32.0489 328.0647 15.08862270 37999,6917.812,95.436,541.322,538.0319999999998,0.0
